$$SOE
2459580.500000000, A.D. 2022-Jan-01 00:00:00.0000, -5.261556440719970E+08, 2.114601646847253E+07, 1.809354697962273E+07,
2459587.500000000, A.D. 2022-Jan-08 00:00:00.0000, -5.274228676734839E+08, 1.232107189454562E+07, 1.830471125293745E+07,
2459594.500000000, A.D. 2022-Jan-15 00:00:00.0000, -5.285160891818031E+08, 3.492066091767814E+06, 1.850983568209129E+07,
2459601.500000000, A.D. 2022-Jan-22 00:00:00.0000, -5.294358990745714E+08, -5.338082024692819E+06, 1.870888564504077E+07,
2459608.500000000, A.D. 2022-Jan-29 00:00:00.0000, -5.301829155578343E+08, -1.416648229049384E+07, 1.890182821143483E+07,
2459615.500000000, A.D. 2022-Feb-05 00:00:00.0000, -5.307577859295919E+08, -2.299027330893077E+07, 1.908863224820833E+07,
2459622.500000000, A.D. 2022-Feb-12 00:00:00.0000, -5.311611858190486E+08, -3.180662353495110E+07, 1.926926824182579E+07,
2459629.500000000, A.D. 2022-Feb-19 00:00:00.0000, -5.313938176237446E+08, -4.061273105752825E+07, 1.944370815220524E+07,
2459636.500000000, A.D. 2022-Feb-26 00:00:00.0000, -5.314564094534456E+08, -4.940582280438475E+07, 1.961192535926687E+07,
2459643.500000000, A.D. 2022-Mar-05 00:00:00.0000, -5.313497144197567E+08, -5.818315378697840E+07, 1.977389463675122E+07,
2459650.500000000, A.D. 2022-Mar-12 00:00:00.0000, -5.310745100479509E+08, -6.694200645234637E+07, 1.992959212724806E+07,
2459657.500000000, A.D. 2022-Mar-19 00:00:00.0000, -5.306315977384054E+08, -7.567969011478008E+07, 2.007899531385742E+07,
2459664.500000000, A.D. 2022-Mar-26 00:00:00.0000, -5.300218022542293E+08, -8.439354047429149E+07, 2.022208298560101E+07,
2459671.500000000, A.D. 2022-Apr-02 00:00:00.0000, -5.292459711667054E+08, -9.308091927841462E+07, 2.035883518549234E+07,
2459678.500000000, A.D. 2022-Apr-09 00:00:00.0000, -5.283049739859386E+08, -1.017392141228086E+08, 2.048923311645388E+07,
2459685.500000000, A.D. 2022-Apr-16 00:00:00.0000, -5.271997006186818E+08, -1.103658377366754E+08, 2.061325902557133E+07,
2459692.500000000, A.D. 2022-Apr-23 00:00:00.0000, -5.259310604209359E+08, -1.189582256690065E+08, 2.073089627151281E+07,
2459699.500000000, A.D. 2022-Apr-30 00:00:00.0000, -5.244999837146660E+08, -1.275138346216989E+08, 2.084212956303035E+07,
2459706.500000000, A.D. 2022-May-07 00:00:00.0000, -5.229074227060552E+08, -1.360301434036637E+08, 2.094694492629476E+07,
2459713.500000000, A.D. 2022-May-14 00:00:00.0000, -5.211543504153551E+08, -1.445046534674094E+08, 2.104532952194735E+07,
2459720.500000000, A.D. 2022-May-21 00:00:00.0000, -5.192417596477892E+08, -1.529348882692576E+08, 2.113727156017485E+07,
2459727.500000000, A.D. 2022-May-28 00:00:00.0000, -5.171706624831069E+08, -1.613183924125172E+08, 2.122276027932017E+07,
2459734.500000000, A.D. 2022-Jun-04 00:00:00.0000, -5.149420900062087E+08, -1.696527308869729E+08, 2.130178593702313E+07,
2459741.500000000, A.D. 2022-Jun-11 00:00:00.0000, -5.125570921337997E+08, -1.779354884026460E+08, 2.137433980082928E+07,
2459748.500000000, A.D. 2022-Jun-18 00:00:00.0000, -5.100167374977894E+08, -1.861642688044606E+08, 2.144041413585881E+07,
2459755.500000000, A.D. 2022-Jun-25 00:00:00.0000, -5.073221133552614E+08, -1.943366946008920E+08, 2.150000218419474E+07,
2459762.500000000, A.D. 2022-Jul-02 00:00:00.0000, -5.044743253902330E+08, -2.024504066722754E+08, 2.155309811840994E+07,
2459769.500000000, A.D. 2022-Jul-09 00:00:00.0000, -5.014744970162011E+08, -2.105030639817414E+08, 2.159969694800946E+07,
2459776.500000000, A.D. 2022-Jul-16 00:00:00.0000, -4.983237682338005E+08, -2.184923422059247E+08, 2.163979447246785E+07,
2459783.500000000, A.D. 2022-Jul-23 00:00:00.0000, -4.950232962410159E+08, -2.264159312079650E+08, 2.167338748898868E+07,
2459790.500000000, A.D. 2022-Jul-30 00:00:00.0000, -4.915742577115709E+08, -2.342715347074929E+08, 2.170047397334738E+07,
2459797.500000000, A.D. 2022-Aug-06 00:00:00.0000, -4.879778491431869E+08, -2.420568714999388E+08, 2.172105295694806E+07,
2459804.500000000, A.D. 2022-Aug-13 00:00:00.0000, -4.842352860986090E+08, -2.497696754703746E+08, 2.173512440100236E+07,
2459811.500000000, A.D. 2022-Aug-20 00:00:00.0000, -4.803478029076905E+08, -2.574076949051508E+08, 2.174268917086467E+07,
2459818.500000000, A.D. 2022-Aug-27 00:00:00.0000, -4.763166527616316E+08, -2.649686918283876E+08, 2.174374904505926E+07,
2459825.500000000, A.D. 2022-Sep-03 00:00:00.0000, -4.721431079512716E+08, -2.724504414745510E+08, 2.173830672737414E+07,
2459832.500000000, A.D. 2022-Sep-10 00:00:00.0000, -4.678284601594213E+08, -2.798507318737141E+08, 2.172636585584623E+07,
2459839.500000000, A.D. 2022-Sep-17 00:00:00.0000, -4.633740207778657E+08, -2.871673635515979E+08, 2.170793100587226E+07,
2459846.500000000, A.D. 2022-Sep-24 00:00:00.0000, -4.587811211885927E+08, -2.943981493955936E+08, 2.168300767773893E+07,
2459853.500000000, A.D. 2022-Oct-01 00:00:00.0000, -4.540511127692891E+08, -3.015409147093784E+08, 2.165160224464740E+07,
2459860.500000000, A.D. 2022-Oct-08 00:00:00.0000, -4.491853662158349E+08, -3.085934969342085E+08, 2.161372186638212E+07,
2459867.500000000, A.D. 2022-Oct-15 00:00:00.0000, -4.441852711134062E+08, -3.155537438375887E+08, 2.156937455186370E+07,
2459874.500000000, A.D. 2022-Oct-22 00:00:00.0000, -4.390522379372614E+08, -3.224195118531689E+08, 2.151856943277645E+07,
2459881.500000000, A.D. 2022-Oct-29 00:00:00.0000, -4.337876999852464E+08, -3.291886671657104E+08, 2.146131680690750E+07,
2459888.500000000, A.D. 2022-Nov-05 00:00:00.0000, -4.283931131426834E+08, -3.358590868000004E+08, 2.139762798241255E+07,
2459895.500000000, A.D. 2022-Nov-12 00:00:00.0000, -4.228699554435950E+08, -3.424286584461901E+08, 2.132751520655531E+07,
2459902.500000000, A.D. 2022-Nov-19 00:00:00.0000, -4.172197271464469E+08, -3.488952799760725E+08, 2.125099166666612E+07,
2459909.500000000, A.D. 2022-Nov-26 00:00:00.0000, -4.114439510617018E+08, -3.552568590489079E+08, 2.116807150657907E+07,
2459916.500000000, A.D. 2022-Dec-03 00:00:00.0000, -4.055441729656107E+08, -3.615113128198293E+08, 2.107876984227721E+07,
2459923.500000000, A.D. 2022-Dec-10 00:00:00.0000, -3.995219620556465E+08, -3.676565677332269E+08, 2.098310277410778E+07,
2459930.500000000, A.D. 2022-Dec-17 00:00:00.0000, -3.933789114236768E+08, -3.736905594266676E+08, 2.088108739132471E+07,
2459937.500000000, A.D. 2022-Dec-24 00:00:00.0000, -3.871166384379272E+08, -3.796112328114618E+08, 2.077274175362301E+07,
2459944.500000000, A.D. 2022-Dec-31 00:00:00.0000, -3.807367846762347E+08, -3.854165422225799E+08, 2.065808482572810E+07,
2459951.500000000, A.D. 2023-Jan-07 00:00:00.0000, -3.742410152877602E+08, -3.911044506756992E+08, 2.053713643250515E+07,
2459958.500000000, A.D. 2023-Jan-14 00:00:00.0000, -3.676310197497124E+08, -3.966729277347248E+08, 2.040991745565438E+07,
2459965.500000000, A.D. 2023-Jan-21 00:00:00.0000, -3.609085146632599E+08, -4.021199491631388E+08, 2.027645007186887E+07,
2459972.500000000, A.D. 2023-Jan-28 00:00:00.0000, -3.540752449208607E+08, -4.074434985560796E+08, 2.013675768012343E+07,
2459979.500000000, A.D. 2023-Feb-04 00:00:00.0000, -3.471329834541408E+08, -4.126415679263349E+08, 1.999086478482564E+07,
2459986.500000000, A.D. 2023-Feb-11 00:00:00.0000, -3.400835313576064E+08, -4.177121574380886E+08, 1.983879698382533E+07,
2459993.500000000, A.D. 2023-Feb-18 00:00:00.0000, -3.329287184510472E+08, -4.226532751118795E+08, 1.968058099991632E+07,
2460000.500000000, A.D. 2023-Feb-25 00:00:00.0000, -3.256704040173709E+08, -4.274629366632132E+08, 1.951624471860102E+07,
2460007.500000000, A.D. 2023-Mar-04 00:00:00.0000, -3.183104776133942E+08, -4.321391654569976E+08, 1.934581722442979E+07,
2460014.500000000, A.D. 2023-Mar-11 00:00:00.0000, -3.108508599249125E+08, -4.366799925783471E+08, 1.916932883354476E+07,
2460021.500000000, A.D. 2023-Mar-18 00:00:00.0000, -3.032935036190060E+08, -4.410834570702159E+08, 1.898681111432338E+07,
2460028.500000000, A.D. 2023-Mar-25 00:00:00.0000, -2.956403939902427E+08, -4.453476063859862E+08, 1.879829687388584E+07,
2460035.500000000, A.D. 2023-Apr-01 00:00:00.0000, -2.878935489762119E+08, -4.494704966645381E+08, 1.860382010394540E+07,
2460042.500000000, A.D. 2023-Apr-08 00:00:00.0000, -2.800550191576157E+08, -4.534501916035969E+08, 1.840341604278639E+07,
2460049.500000000, A.D. 2023-Apr-15 00:00:00.0000, -2.721268900794136E+08, -4.572847610382537E+08, 1.819712147747847E+07,
2460056.500000000, A.D. 2023-Apr-22 00:00:00.0000, -2.641112850833130E+08, -4.609722822781193E+08, 1.798497487104365E+07,
2460063.500000000, A.D. 2023-Apr-29 00:00:00.0000, -2.560103659167677E+08, -4.645108419523921E+08, 1.776701624791536E+07,
2460070.500000000, A.D. 2023-May-06 00:00:00.0000, -2.478263328791596E+08, -4.678985365832433E+08, 1.754328714477515E+07,
2460077.500000000, A.D. 2023-May-13 00:00:00.0000, -2.395614254819625E+08, -4.711334727820467E+08, 1.731383064327857E+07,
2460084.500000000, A.D. 2023-May-20 00:00:00.0000, -2.312179233883798E+08, -4.742137675605286E+08, 1.707869142286292E+07,
2460091.500000000, A.D. 2023-May-27 00:00:00.0000, -2.227981474383716E+08, -4.771375487875843E+08, 1.683791581320968E+07,
2460098.500000000, A.D. 2023-Jun-03 00:00:00.0000, -2.143044607008790E+08, -4.799029557675503E+08, 1.659155184291002E+07,
2460105.500000000, A.D. 2023-Jun-10 00:00:00.0000, -2.057392695290478E+08, -4.825081399557797E+08, 1.633964928078106E+07,
2460112.500000000, A.D. 2023-Jun-17 00:00:00.0000, -1.971050245292015E+08, -4.849512658737412E+08, 1.608225965655807E+07,
2460119.500000000, A.D. 2023-Jun-24 00:00:00.0000, -1.884042211234210E+08, -4.872305121699317E+08, 1.581943623599967E+07,
2460126.500000000, A.D. 2023-Jul-01 00:00:00.0000, -1.796393994523036E+08, -4.893440720000263E+08, 1.555123399471268E+07,
2460133.500000000, A.D. 2023-Jul-08 00:00:00.0000, -1.708131452910593E+08, -4.912901519052037E+08, 1.527770981124100E+07,
2460140.500000000, A.D. 2023-Jul-15 00:00:00.0000, -1.619280932539350E+08, -4.930669720195730E+08, 1.499892276502270E+07,
$$EOE